0 CZ-4C DEB
1 39212U 13037E   13281.54102829  .00001161  00000-0  21167-3 0   920
2 39212 098.0576 297.9243 0007786 108.8322 251.3728 14.67839138 11822
0 CZ-4C DEB
1 39212U 13037E   13283.79057649  .00001187  00000-0  21615-3 0   935
2 39212 098.0575 300.1382 0007880 102.5902 257.6187 14.67844697 12153
0 CZ-4C DEB
1 39212U 13037E   13285.90377585  .00001399  00000-0  25324-3 0   941
2 39212 098.0572 302.2178 0007907 097.2223 262.9882 14.67852122 12469
0 CZ-4C DEB
1 39212U 13037E   13288.22146775  .00001528  00000-0  27574-3 0   958
2 39212 098.0569 304.4987 0007961 090.3342 269.8775 14.67860169 12808
0 CZ-4C DEB
1 39212U 13037E   13290.40281177  .00001693  00000-0  30458-3 0   966
2 39212 098.0566 306.6456 0008086 084.5955 275.6173 14.67868683 13126
0 CZ-4C DEB
1 39212U 13037E   13292.51597492  .00001884  00000-0  33794-3 0   979
2 39212 098.0562 308.7255 0008118 079.8958 280.3162 14.67877979 13431
0 CZ-4C DEB
1 39212U 13037E   13294.56096158  .00001919  00000-0  34405-3 0   989
2 39212 098.0561 310.7378 0008125 074.3870 285.8231 14.67886149 13739
